     2.11           N: GPS NAV DATA                         RINEX VERSION / TYPE
CONVBIN 2.4.3                           20210902 202210 UTC PGM / RUN BY / DATE 
log: logs/21_09_02_07_47_06_brdc.rtcm                       COMMENT             
format: RTCM 3                                              COMMENT             
                                                            END OF HEADER       
27 21  9  2  7 59 44.0 -.187116209418E-03 -.545696821064E-11  .000000000000E+00
     .210000000000E+02  .933437500000E+02  .429553606918E-08  .144330712260E+01
     .493600964546E-05  .945841008797E-02  .610575079918E-05  .515369500542E+04
     .374384000000E+06 -.111758708954E-06  .340410621069E-01  .167638063431E-06
     .975391003350E+00  .269531250000E+03  .634416004579E+00 -.812105256015E-08
     .485734518507E-10  .100000000000E+01  .217300000000E+04  .000000000000E+00
     .200000000000E+01  .000000000000E+00  .186264514923E-08  .210000000000E+02
     .345600000000E+06  .400000000000E+01
14 21  9  2 10  0  0.0  .102133490145E-04 -.829913915368E-11  .000000000000E+00
     .147000000000E+03  .337187500000E+02  .451233081383E-08 -.106559594676E+01
     .168196856976E-05  .107432808727E-02  .935420393944E-05  .515364905739E+04
     .381600000000E+06 -.186264514923E-07 -.969601383630E+00 -.931322574615E-08
     .955667772107E+00  .194562500000E+03  .308507521717E+01 -.794425948172E-08
    -.297155234851E-09  .100000000000E+01  .217300000000E+04  .000000000000E+00
     .200000000000E+01  .000000000000E+00 -.791624188423E-08  .915000000000E+03
     .345600000000E+06  .400000000000E+01
15 21  9  2 10  0  0.0 -.124033540487E-03  .272848410532E-11  .000000000000E+00
     .820000000000E+02 -.177187500000E+02  .509414076284E-08  .164447640213E+01
    -.105984508991E-05  .135892669205E-01  .962801277637E-05  .515367418671E+04
     .381600000000E+06 -.292435288429E-06  .305673997591E+01 -.175088644028E-06
     .929754829141E+00  .182250000000E+03  .101944497607E+01 -.828641659108E-08
     .305012705003E-09  .100000000000E+01  .217300000000E+04  .000000000000E+00
     .200000000000E+01  .000000000000E+00 -.107102096081E-07  .820000000000E+02
     .345600000000E+06  .400000000000E+01
16 21  9  2 10  0  0.0 -.383818987757E-03 -.625277607469E-11  .000000000000E+00
     .300000000000E+02  .520000000000E+02  .410481383912E-08 -.285975005877E+01
     .243261456490E-05  .122007190948E-01  .950507819653E-05  .515375439262E+04
     .381600000000E+06 -.149011611938E-07 -.922220340213E+00 -.244006514549E-06
     .972275197039E+00  .204312500000E+03  .680317249304E+00 -.755567186692E-08
    -.238224208709E-09  .100000000000E+01  .217300000000E+04  .000000000000E+00
     .200000000000E+01  .000000000000E+00 -.102445483208E-07  .300000000000E+02
     .345600000000E+06  .400000000000E+01
17 21  9  2 10  0  0.0  .498650129884E-03  .579802872380E-11  .000000000000E+00
     .930000000000E+02  .969062500000E+02  .397695137027E-08  .257954126109E+01
     .496394932270E-05  .135000075679E-01  .600330531597E-05  .515366146851E+04
     .381600000000E+06  .141561031342E-06  .953069389680E-01 -.176951289177E-06
     .981676449896E+00  .269062500000E+03 -.155900558012E+01 -.769246327912E-08
     .596453416107E-10  .100000000000E+01  .217300000000E+04  .000000000000E+00
     .400000000000E+01  .000000000000E+00 -.111758708954E-07  .930000000000E+02
     .345600000000E+06  .400000000000E+01
18 21  9  2 10  0  0.0  .326772220433E-03 -.397903932026E-11  .000000000000E+00
     .000000000000E+00 -.334062500000E+02  .453376027789E-08  .636624618816E+00
    -.192411243916E-05  .188204657752E-02  .232830643654E-05  .515364989662E+04
     .381600000000E+06 -.353902578354E-07  .110247730967E+01 -.298023223877E-07
     .968898469047E+00  .335031250000E+03  .292912633151E+01 -.827213028172E-08
    -.158935191717E-09  .100000000000E+01  .217300000000E+04  .000000000000E+00
     .200000000000E+01  .000000000000E+00 -.838190317154E-08  .256000000000E+03
     .345600000000E+06  .400000000000E+01
19 21  9  2 10  0  0.0  .476110726595E-04  .500222085975E-11  .000000000000E+00
     .490000000000E+02  .871250000000E+02  .413552940426E-08 -.132672514155E+01
     .466965138912E-05  .916633417364E-02  .632181763649E-05  .515365262604E+04
     .381600000000E+06 -.247731804848E-06  .140329492189E+00  .242143869400E-07
     .980284947089E+00  .271562500000E+03  .193327083779E+01 -.802569144512E-08
     .172864343351E-09  .100000000000E+01  .217300000000E+04  .000000000000E+00
     .200000000000E+01  .000000000000E+00 -.153668224812E-07  .490000000000E+02
     .345600000000E+06  .400000000000E+01
20 21  9  2 10  0  0.0  .519337598234E-03 -.227373675443E-12  .000000000000E+00
     .740000000000E+02 -.101375000000E+03  .491306179160E-08  .148712036483E+01
    -.515580177307E-05  .551573175471E-02  .625103712082E-05  .515364816856E+04
     .381600000000E+06  .372529029846E-08  .198015484455E+01  .121071934700E-06
     .939360633055E+00  .249500000000E+03  .297577681412E+01 -.823998608564E-08
    -.211437378644E-09  .100000000000E+01  .217300000000E+04  .000000000000E+00
     .200000000000E+01  .000000000000E+00 -.838190317154E-08  .740000000000E+02
     .345600000000E+06  .400000000000E+01
21 21  9  2 10  0  0.0  .140565913171E-03  .204636307899E-11  .000000000000E+00
     .660000000000E+02 -.193437500000E+02  .482662961993E-08  .267250823041E+01
    -.819563865662E-06  .240762917092E-01  .114180147648E-05  .515364995193E+04
     .381600000000E+06  .430271029472E-06  .100579075264E+01  .204890966415E-06
     .957939163086E+00  .351812500000E+03 -.109076106210E+01 -.816462580372E-08
    -.186079179516E-09  .100000000000E+01  .217300000000E+04  .000000000000E+00
     .200000000000E+01  .000000000000E+00 -.102445483208E-07  .660000000000E+02
     .345600000000E+06  .400000000000E+01
22 21  9  2 10  0  0.0 -.523224007338E-03  .932232069317E-11  .000000000000E+00
     .100000000000E+03 -.113375000000E+03  .498199323430E-08  .144267068740E+01
    -.598840415478E-05  .676726421807E-02  .713206827641E-05  .515374973488E+04
     .381600000000E+06  .154599547386E-06  .202635330303E+01 -.111758708954E-07
     .936080930180E+00  .224968750000E+03 -.898712779817E+00 -.823284293095E-08
    -.153577825704E-09  .100000000000E+01  .217300000000E+04  .000000000000E+00
     .280000000000E+01  .000000000000E+00 -.176951289177E-07  .100000000000E+03
     .345600000000E+06  .400000000000E+01
23 21  9  2 10  0  0.0  .627757981420E-04 -.500222085975E-11  .000000000000E+00
     .190000000000E+02 -.926250000000E+02  .427624955153E-08 -.966377394526E-01
    -.497139990330E-05  .161522382405E-02  .834465026855E-05  .515367072296E+04
     .381600000000E+06  .949949026108E-07  .210244008195E+01 -.670552253723E-07
     .965283911538E+00  .226093750000E+03  .265818358235E+01 -.789604318761E-08
    -.192508018732E-09  .100000000000E+01  .217300000000E+04  .000000000000E+00
     .200000000000E+01  .000000000000E+00 -.838190317154E-08  .531000000000E+03
     .345600000000E+06  .400000000000E+01
24 21  9  2 10  0  0.0  .224881805480E-03  .954969436862E-11  .000000000000E+00
     .490000000000E+02  .136875000000E+02  .539058168222E-08  .673096316386E+00
     .685453414917E-06  .114590962185E-01  .585988163948E-05  .515370836067E+04
     .381600000000E+06 -.111758708954E-06 -.213273035230E+01  .132247805595E-06
     .934665458922E+00  .254125000000E+03  .752934320085E+00 -.855642783814E-08
    -.896465912832E-10  .100000000000E+01  .217300000000E+04  .000000000000E+00
     .200000000000E+01  .000000000000E+00  .279396772385E-08  .490000000000E+02
     .345600000000E+06  .400000000000E+01
25 21  9  2 10  0  0.0  .201486982405E-03  .636646291241E-11  .000000000000E+00
     .710000000000E+02  .279062500000E+02  .451340228704E-08 -.121225040038E+01
     .165775418282E-05  .985716551077E-02  .841543078423E-05  .515358071518E+04
     .381600000000E+06  .216066837311E-06 -.101563352002E+01  .173225998878E-06
     .959562713959E+00  .217531250000E+03  .969495247460E+00 -.794604527039E-08
    -.275011455331E-09  .100000000000E+01  .217300000000E+04  .000000000000E+00
     .200000000000E+01  .000000000000E+00  .558793544769E-08  .710000000000E+02
     .345600000000E+06  .400000000000E+01
26 21  9  2 10  0  0.0  .129629392177E-03  .432009983342E-11  .000000000000E+00
     .330000000000E+02  .315000000000E+02  .493806283300E-08 -.188603701953E+01
     .132434070110E-05  .605038693175E-02  .842846930027E-05  .515361519241E+04
     .381600000000E+06  .409781932831E-07 -.105953012079E+01 -.109896063805E-06
     .940428855837E+00  .206718750000E+03  .295858365288E+00 -.807819363205E-08
    -.225009372544E-09  .100000000000E+01  .217300000000E+04  .000000000000E+00
     .200000000000E+01  .000000000000E+00  .698491930962E-08  .330000000000E+02
     .345600000000E+06  .400000000000E+01
27 21  9  2  9 59 44.0 -.187154859304E-03 -.545696821064E-11  .000000000000E+00
     .230000000000E+02  .946875000000E+02  .415910181471E-08  .249348317842E+01
     .485405325890E-05  .945826817770E-02  .597722828388E-05  .515369492912E+04
     .381584000000E+06 -.875443220139E-07  .339825775679E-01 -.169500708580E-06
     .975393177247E+00  .271812500000E+03  .634406638977E+00 -.781461122421E-08
     .192150860997E-09  .100000000000E+01  .217300000000E+04  .000000000000E+00
     .200000000000E+01  .000000000000E+00  .186264514923E-08  .230000000000E+02
     .345600000000E+06  .400000000000E+01
